STARLINK-2217           
1 48568U 21041R   26068.38004220 -.00001207  00000+0 -28629-4 0  9992
2 48568  53.1617 128.1828 0001370  98.1474 261.9682 15.30200473265226
YAOGAN-43 01D           
1 60461U 24148D   26068.43560480  .00010676  00000+0  37766-3 0  9999
2 60461  35.0010  61.7102 0002556 326.2473  33.8080 15.28369377 87008
