[{"OBJECT_NAME":"STARLINK-2217","OBJECT_ID":"2021-041R","EPOCH":"2026-03-09T09:07:15.646080","MEAN_MOTION":15.30200473,"ECCENTRICITY":0.00013705,"INCLINATION":53.1617,"RA_OF_ASC_NODE":128.1828,"ARG_OF_PERICENTER":98.1474,"MEAN_ANOMALY":261.9682,"EPHEMERIS_TYPE":0,"CLASSIFICATION_TYPE":"U","NORAD_CAT_ID":48568,"ELEMENT_SET_NO":999,"REV_AT_EPOCH":26522,"BSTAR":-2.8629365e-5,"MEAN_MOTION_DOT":-1.207e-5,"MEAN_MOTION_DDOT":0},{"OBJECT_NAME":"YAOGAN-43 01D","OBJECT_ID":"2024-148D","EPOCH":"2026-03-09T10:27:16.254720","MEAN_MOTION":15.28369377,"ECCENTRICITY":0.00025569,"INCLINATION":35.001,"RA_OF_ASC_NODE":61.7102,"ARG_OF_PERICENTER":326.2473,"MEAN_ANOMALY":33.808,"EPHEMERIS_TYPE":0,"CLASSIFICATION_TYPE":"U","NORAD_CAT_ID":60461,"ELEMENT_SET_NO":999,"REV_AT_EPOCH":8700,"BSTAR":0.00037765912,"MEAN_MOTION_DOT":0.00010676,"MEAN_MOTION_DDOT":0}]
